{
  "type": "FeatureCollection",
  "features": [
    {
      "type": "Feature",
      "properties": {
        "norad_id": 43207,
        "name": "BEIDOU-3 M4 (C22)",
        "group": "beidou",
        "lat": -3.34594724195278,
        "lon": -108.64090999440099,
        "alt_km": 21540.241213860754,
        "timestamp": "2025-12-17T23:38:07.119206+00:00",
        "meta_object_name": "BEIDOU-3 M4 (C22)",
        "meta_object_id": "2018-018A",
        "meta_epoch": "2025-12-13T22:50:30.052608",
        "meta_mean_motion": 1.8623122,
        "meta_eccentricity": 0.00041094,
        "meta_inclination": 56.4872,
        "meta_ra_of_asc_node": 69.2635,
        "meta_arg_of_pericenter": 7.3509,
        "meta_mean_anomaly": 352.6729,
        "meta_ephemeris_type": 0,
        "meta_classification_type": "U",
        "meta_norad_cat_id": 43207,
        "meta_element_set_no": 999,
        "meta_rev_at_epoch": 5329,
        "meta_bstar": 0,
        "meta_mean_motion_dot": -8.1e-07,
        "meta_mean_motion_ddot": 0,
        "tle_line1": "1 43207U 18018A   25347.95173672 -.00000081  00000+0  00000+0 0  9993",
        "tle_line2": "2 43207  56.4872  69.2635 0004109   7.3509 352.6729  1.86231220 53297"
      },
      "geometry": {
        "type": "Point",
        "coordinates": [
          -108.64090999440099,
          -3.34594724195278
        ]
      }
    },
    {
      "type": "Feature",
      "properties": {
        "norad_id": 43208,
        "name": "BEIDOU-3 M3 (C21)",
        "group": "beidou",
        "lat": 32.9090164248892,
        "lon": -136.20083060127854,
        "alt_km": 21542.546895755826,
        "timestamp": "2025-12-17T23:38:07.119218+00:00",
        "meta_object_name": "BEIDOU-3 M3 (C21)",
        "meta_object_id": "2018-018B",
        "meta_epoch": "2025-12-14T00:26:16.877760",
        "meta_mean_motion": 1.86231433,
        "meta_eccentricity": 0.00066523,
        "meta_inclination": 56.4868,
        "meta_ra_of_asc_node": 69.2653,
        "meta_arg_of_pericenter": 316.6996,
        "meta_mean_anomaly": 43.266,
        "meta_ephemeris_type": 0,
        "meta_classification_type": "U",
        "meta_norad_cat_id": 43208,
        "meta_element_set_no": 999,
        "meta_rev_at_epoch": 5329,
        "meta_bstar": 0,
        "meta_mean_motion_dot": -8.1e-07,
        "meta_mean_motion_ddot": 0,
        "tle_line1": "1 43208U 18018B   25348.01825090 -.00000081  00000+0  00000+0 0  9990",
        "tle_line2": "2 43208  56.4868  69.2653 0006652 316.6996  43.2660  1.86231433 53297"
      },
      "geometry": {
        "type": "Point",
        "coordinates": [
          -136.20083060127854,
          32.9090164248892
        ]
      }
    },
    {
      "type": "Feature",
      "properties": {
        "norad_id": 43245,
        "name": "BEIDOU-3 M9 (C29)",
        "group": "beidou",
        "lat": -4.55341819582339,
        "lon": -57.012182656403,
        "alt_km": 21527.6173006617,
        "timestamp": "2025-12-17T23:38:07.119230+00:00",
        "meta_object_name": "BEIDOU-3 M9 (C29)",
        "meta_object_id": "2018-029A",
        "meta_epoch": "2025-12-16T22:03:42.750720",
        "meta_mean_motion": 1.86228481,
        "meta_eccentricity": 0.00015662,
        "meta_inclination": 54.3617,
        "meta_ra_of_asc_node": 306.3216,
        "meta_arg_of_pericenter": 284.8378,
        "meta_mean_anomaly": 75.1315,
        "meta_ephemeris_type": 0,
        "meta_classification_type": "U",
        "meta_norad_cat_id": 43245,
        "meta_element_set_no": 999,
        "meta_rev_at_epoch": 5250,
        "meta_bstar": 0,
        "meta_mean_motion_dot": -9.3e-07,
        "meta_mean_motion_ddot": 0,
        "tle_line1": "1 43245U 18029A   25350.91924480 -.00000093  00000+0  00000+0 0  9991",
        "tle_line2": "2 43245  54.3617 306.3216 0001566 284.8378  75.1315  1.86228481 52509"
      },
      "geometry": {
        "type": "Point",
        "coordinates": [
          -57.012182656403,
          -4.55341819582339
        ]
      }
    },
    {
      "type": "Feature",
      "properties": {
        "norad_id": 43246,
        "name": "BEIDOU-3 M10 (C30)",
        "group": "beidou",
        "lat": 29.913562992560703,
        "lon": -29.35338735817635,
        "alt_km": 21515.23241190706,
        "timestamp": "2025-12-17T23:38:07.119241+00:00",
        "meta_object_name": "BEIDOU-3 M10 (C30)",
        "meta_object_id": "2018-029B",
        "meta_epoch": "2025-12-16T20:30:27.421056",
        "meta_mean_motion": 1.86229026,
        "meta_eccentricity": 0.00041394,
        "meta_inclination": 54.3591,
        "meta_ra_of_asc_node": 306.3508,
        "meta_arg_of_pericenter": 2.0854,
        "meta_mean_anomaly": 357.9028,
        "meta_ephemeris_type": 0,
        "meta_classification_type": "U",
        "meta_norad_cat_id": 43246,
        "meta_element_set_no": 999,
        "meta_rev_at_epoch": 5248,
        "meta_bstar": 0,
        "meta_mean_motion_dot": -9.3e-07,
        "meta_mean_motion_ddot": 0,
        "tle_line1": "1 43246U 18029B   25350.85448404 -.00000093  00000+0  00000+0 0  9992",
        "tle_line2": "2 43246  54.3591 306.3508 0004139   2.0854 357.9028  1.86229026 52488"
      },
      "geometry": {
        "type": "Point",
        "coordinates": [
          -29.35338735817635,
          29.913562992560703
        ]
      }
    },
    {
      "type": "Feature",
      "properties": {
        "norad_id": 43539,
        "name": "BEIDOU-2 IGSO-7 (C16)",
        "group": "beidou",
        "lat": 22.52014385154012,
        "lon": -178.58163058079361,
        "alt_km": 36134.22292224624,
        "timestamp": "2025-12-17T23:38:07.119253+00:00",
        "meta_object_name": "BEIDOU-2 IGSO-7 (C16)",
        "meta_object_id": "2018-057A",
        "meta_epoch": "2025-12-15T07:47:07.120608",
        "meta_mean_motion": 1.00256546,
        "meta_eccentricity": 0.00926218,
        "meta_inclination": 55.1766,
        "meta_ra_of_asc_node": 164.6485,
        "meta_arg_of_pericenter": 235.2644,
        "meta_mean_anomaly": 271.8458,
        "meta_ephemeris_type": 0,
        "meta_classification_type": "U",
        "meta_norad_cat_id": 43539,
        "meta_element_set_no": 999,
        "meta_rev_at_epoch": 2728,
        "meta_bstar": 0,
        "meta_mean_motion_dot": -2.3e-07,
        "meta_mean_motion_ddot": 0,
        "tle_line1": "1 43539U 18057A   25349.32438797 -.00000023  00000+0  00000+0 0  9995",
        "tle_line2": "2 43539  55.1766 164.6485 0092621 235.2644 271.8458  1.00256546 27289"
      },
      "geometry": {
        "type": "Point",
        "coordinates": [
          -178.58163058079361,
          22.52014385154012
        ]
      }
    },
    {
      "type": "Feature",
      "properties": {
        "norad_id": 43581,
        "name": "BEIDOU-3 M5 (C23)",
        "group": "beidou",
        "lat": -48.276139192182875,
        "lon": 62.862317100950115,
        "alt_km": 21535.605214791467,
        "timestamp": "2025-12-17T23:38:07.119265+00:00",
        "meta_object_name": "BEIDOU-3 M5 (C23)",
        "meta_object_id": "2018-062A",
        "meta_epoch": "2025-12-17T01:53:59.361792",
        "meta_mean_motion": 1.86228923,
        "meta_eccentricity": 0.00020674,
        "meta_inclination": 54.0895,
        "meta_ra_of_asc_node": 188.4955,
        "meta_arg_of_pericenter": 356.8892,
        "meta_mean_anomaly": 3.1782,
        "meta_ephemeris_type": 0,
        "meta_classification_type": "U",
        "meta_norad_cat_id": 43581,
        "meta_element_set_no": 999,
        "meta_rev_at_epoch": 5024,
        "meta_bstar": 0,
        "meta_mean_motion_dot": 1.14e-06,
        "meta_mean_motion_ddot": 0,
        "tle_line1": "1 43581U 18062A   25351.07915928  .00000114  00000+0  00000+0 0  9999",
        "tle_line2": "2 43581  54.0895 188.4955 0002067 356.8892   3.1782  1.86228923 50243"
      },
      "geometry": {
        "type": "Point",
        "coordinates": [
          62.862317100950115,
          -48.276139192182875
        ]
      }
    },
    {
      "type": "Feature",
      "properties": {
        "norad_id": 43582,
        "name": "BEIDOU-3 M6 (C24)",
        "group": "beidou",
        "lat": -16.874342708506866,
        "lon": 175.7565590028334,
        "alt_km": 21522.6611931019,
        "timestamp": "2025-12-17T23:38:07.119276+00:00",
        "meta_object_name": "BEIDOU-3 M6 (C24)",
        "meta_object_id": "2018-062B",
        "meta_epoch": "2025-12-16T22:36:47.503008",
        "meta_mean_motion": 1.86229876,
        "meta_eccentricity": 0.00079021,
        "meta_inclination": 54.0891,
        "meta_ra_of_asc_node": 188.4892,
        "meta_arg_of_pericenter": 48.1398,
        "meta_mean_anomaly": 311.9965,
        "meta_ephemeris_type": 0,
        "meta_classification_type": "U",
        "meta_norad_cat_id": 43582,
        "meta_element_set_no": 999,
        "meta_rev_at_epoch": 5024,
        "meta_bstar": 0,
        "meta_mean_motion_dot": 1.14e-06,
        "meta_mean_motion_ddot": 0,
        "tle_line1": "1 43582U 18062B   25350.94221647  .00000114  00000+0  00000+0 0  9993",
        "tle_line2": "2 43582  54.0891 188.4892 0007902  48.1398 311.9965  1.86229876 50246"
      },
      "geometry": {
        "type": "Point",
        "coordinates": [
          175.7565590028334,
          -16.874342708506866
        ]
      }
    }
  ]
}